[
    {
        "Altitude(m)": 604969.0890316062,
        "Argument of Periapsis(deg)": 0.0,
        "Eccentricity": 0.0,
        "Inclination(deg)": 60.0,
        "Latitude(deg)": -0.092573230170266,
        "Longitude(deg)": 44.97752775556963,
        "Mean Anomaly(deg)": 0.0,
        "RAAN(deg)": 145.0,
        "Satellite Name": "Test1 638",
        "Satellite Number": 638,
        "Semi-Major Axis(m)": 6980739.136638005,
        "Time(s)": 0
    },
    {
        "Altitude(m)": 604900.0291416984,
        "Argument of Periapsis(deg)": 0.00010418945913296404,
        "Eccentricity": 0.0,
        "Inclination(deg)": 60.0,
        "Latitude(deg)": 0.44785310556341656,
        "Longitude(deg)": 45.24564990894185,
        "Mean Anomaly(deg)": 0.6201061454618275,
        "RAAN(deg)": 144.99957995086027,
        "Satellite Name": "Test1 638",
        "Satellite Number": 638,
        "Semi-Major Axis(m)": 6980739.136638005,
        "Time(s)": 10
    }
]